GONETS-M 15             
1 44906U 19096B   24083.15302815  .00000016  00000+0  42975-4 0  9997
2 44906  82.5240 230.8320 0016313 155.0502 205.1370 12.42868627192305
GONETS-M 16             
1 44907U 19096C   24082.85696984  .00000033  00000+0  16559-3 0  9994
2 44907  82.5186 230.3331 0011881 194.1891 165.8857 12.42869750192223
RS-44 & BREEZE-KM R/B   
1 44909U 19096E   24082.72107576  .00000023  00000+0  55775-4 0  9999
2 44909  82.5248 162.2268 0216384 253.2537 104.4721 12.79727683197913
JILIN-1 KUANFU 01       
1 45016U 20003A   24083.14713687  .00008647  00000+0  51734-3 0  9992
2 45016  97.5876 156.4285 0014603  40.1212 320.1093 15.11196535232052
XINGYUN-2 01            
1 45602U 20028A   24083.19947701  .00004343  00000+0  30971-3 0  9990
2 45602  97.4542  86.7720 0013317 119.7989 240.4564 15.04997623211802
XINGYUN-2 02            
1 45603U 20028B   24083.18567046  .00005069  00000+0  36120-3 0  9998
2 45603  97.5191  95.7302 0012610 181.8896 178.2285 15.04961189211808
HAIYANG-1D              
1 45721U 20036A   24083.17848116  .00000563  00000+0  21696-3 0  9993
2 45721  98.5830  24.2717 0002690  30.3397 329.7943 14.34084108198018
M2 PATHFINDER           
1 45727U 20037E   24083.01242222  .00004651  00000+0  41590-3 0  9996
2 45727  97.7711 259.9714 0012086  54.6601 305.5748 14.96314369203053
GAOFEN DUOMO (GFDM)     
1 45856U 20042A   24083.17713574  .00002307  00000+0  33576-3 0  9996
2 45856  97.8747 156.4668 0011433 196.6801 163.4035 14.76783519200578
BY70-2                  
1 45857U 20042B   24083.18783202  .00070150  00000+0  41066-2 0  9996
2 45857  97.9114 172.5292 0007458 166.5258 193.6172 15.11505946201488
ZINYUAN-3               
1 45939U 20051A   24083.20915785  .00010124  00000+0  45645-3 0  9996
2 45939  97.3706 161.3453 0011598 314.3463  45.6822 15.21161220203299
TIANQI-10               
1 45941U 20051C   24083.16866158  .00121973  00000+0  10706-2 0  9997
2 45941  97.4020 187.4767 0006472 197.1917 162.9126 15.68423098204875
Q-SAT                   
1 46026U 20054B   24083.22484883  .00114775  00000+0  10784-2 0  9991
2 46026  97.3403 176.2483 0007637 221.9984 138.0692 15.66750361202929
GLOBAL-8                
1 46089U 20055BQ  24083.02274953  .00745563  27421-3  12664-2 0  9998
2 46089  52.9744 335.2555 0005638 210.8750 149.1949 16.02045767210955
TIANTUO 5               
1 46234U 20058C   24083.20578154  .00022178  00000+0  64301-3 0  9999
2 46234  97.3113 141.6757 0011607 329.8845  30.1730 15.35487551199579
TYVAK-0172              
1 46267U 20059C   24082.53784045  .00014760  00000+0  11327-2 0  9996
2 46267  97.8340 284.2012 0001148 194.2195 165.8997 15.01886394193735
ION-MK01                
1 46274U 20061C   24082.69637967  .00015319  00000+0  56941-3 0  9997
2 46274  97.3095 148.1853 0005389  46.9019 313.2671 15.27609091196764
UPMSAT-2                
1 46276U 20061E   24082.76598829  .00019137  00000+0  64966-3 0  9998
2 46276  97.3070 150.1994 0002447  91.5527 268.5994 15.30540984196949
NEMO-HD                 
1 46277U 20061F   24083.19870959  .00009555  00000+0  39034-3 0  9995
2 46277  97.3073 147.9665 0002925  90.2900 269.8673 15.24584397196839
SIMBA                   
1 46279U 20061H   24083.17765021  .00068807  00000+0  15134-2 0  9997
2 46279  97.3599 154.5186 0003466 162.8795 197.2571 15.43737619196609
TRISAT                  
1 46280U 20061J   24083.18993644  .00051471  00000+0  12973-2 0  9991
2 46280  97.3476 152.7581 0003200 158.2095 201.9288 15.39709535196544
PICASSO-BEL             
1 46281U 20061K   24083.18349669  .00485565  00000+0  25676-2 0  9993
2 46281  97.3492 160.7078 0005366 244.6480 115.4232 15.79288783197041
DIDO 3                  
1 46284U 20061N   24083.16578432  .00026040  00000+0  93018-3 0  9991
2 46284  97.3586 149.7149 0003485 152.2123 207.9304 15.28814971196271
FLOCK 4V-14             
1 46286U 20061Q   24083.13656646  .00036838  00000+0  98361-3 0  9996
2 46286  97.3645 156.1829 0003533 136.5855 223.5669 15.38012447196713
AMICALSAT               
1 46287U 20061R   24082.75333363  .00030029  00000+0  10004-2 0  9995
2 46287  97.3597 150.3490 0002758 159.1163 201.0191 15.31058969196310
3CAT-5A                 
1 46292U 20061W   24082.68617806  .00010877  00000+0  51178-3 0  9997
2 46292  97.3592 145.6653 0004096 136.9445 223.2111 15.19721621195980
3CAT-5B                 
1 46293U 20061X   24082.75295791  .00011744  00000+0  54904-3 0  9995
2 46293  97.3592 146.0071 0004075 134.1933 225.9637 15.19922318195987
OSM-1 CICERO            
1 46294U 20061Y   24083.13786951  .00021725  00000+0  81802-3 0  9999
2 46294  97.3609 150.0150 0003738 129.6167 230.5403 15.27115015196300
FLOCK 4V-10             
1 46296U 20061AA  24082.75097942  .00032969  00000+0  88931-3 0  9995
2 46296  97.3649 156.0160 0002531 138.9693 221.1742 15.37723971196624
FLOCK 4V-13             
1 46297U 20061AB  24082.77964884  .00030270  00000+0  83655-3 0  9997
2 46297  97.3639 155.9517 0001538 123.4122 236.7269 15.36990295196608
TTU100                  
1 46312U 20061AS  24083.19510821  .00068742  00000+0  14152-2 0  9990
2 46312  97.3650 157.4432 0001952 115.4018 244.7433 15.45696205196759
KEPLER-2 (TARS)         
1 46319U 20061AZ  24082.73905213  .00036132  00000+0  11084-2 0  9998
2 46319  97.3626 153.0122 0002346  96.4817 263.6693 15.33666680196489
NAPA-1                  
1 46320U 20061BA  24083.18788768  .00016040  00000+0  71145-3 0  9995
2 46320  97.3637 148.3791 0003801  88.8892 271.2779 15.21662442196217
JILIN-1 GAOFEN 3B       
1 46454U 20065A   24083.22806878  .00015808  00000+0  67216-3 0  9990
2 46454  97.3541 129.7696 0012316 153.8701 206.3160 15.23043044194336
JILIN-1 GAOFEN 3E       
1 46457U 20065D   24083.17411683  .00015861  00000+0  67796-3 0  9995
2 46457  97.3553 129.8162 0010675 171.4159 188.7262 15.22880488194325
JILIN-1 GAOFEN 3F       
1 46458U 20065E   24083.14900065  .00016523  00000+0  70562-3 0  9991
2 46458  97.3487 128.6871 0011290 161.9281 198.2360 15.22897423194322
JILIN-1 GAOFEN 3G       
1 46459U 20065F   24083.19749864  .00016649  00000+0  70889-3 0  9996
2 46459  97.3603 130.8623 0011992 167.2410 192.9133 15.22989852194333
JILIN-1 GAOFEN 3H       
1 46460U 20065G   24083.22909569  .00015144  00000+0  65002-3 0  9992
2 46460  97.3498 128.9534 0011371 163.6678 196.4928 15.22742266194330
JILIN-1 GAOFEN 3J       
1 46462U 20065J   24083.17476987  .00016239  00000+0  69121-3 0  9993
2 46462  97.3542 129.7957 0011096 161.0310 199.1343 15.23015398194330
HAIYANG-2C              
1 46469U 20066A   24083.17471577  .00000045  00000+0  11427-3 0  9995
2 46469  65.9946  86.9725 0013624 256.5536 103.4014 13.83375601176908
HJ-2A                   
1 46478U 20067A   24083.17565589  .00002208  00000+0  32410-3 0  9991
2 46478  97.9428 166.5837 0001912  84.3456 275.7972 14.76514510187840
HJ-2B                   
1 46479U 20067B   24083.21104030  .00002240  00000+0  32886-3 0  9990
2 46479  97.9467 167.1390 0002139 110.3754 249.7686 14.76487679187857
GONETS-M 17             
1 46486U 20068A   24083.20385412  .00000052  00000+0  30665-3 0  9995
2 46486  82.4964 135.1205 0023105  18.4971 341.6943 12.42905216157983
GONETS-M 18             
1 46487U 20068B   24083.17096188  .00000054  00000+0  31764-3 0  9994
2 46487  82.4918 134.5724 0020121  15.4854 344.6837 12.42886233157975
GONETS-M 19             
1 46488U 20068C   24082.90451342  .00000053  00000+0  31096-3 0  9999
2 46488  82.4943 135.0199 0014202  33.1147 327.0819 12.42879794157846
MEZNSAT                 
1 46489U 20068D   24082.87143890  .00023348  00000+0  10231-2 0  9991
2 46489  97.8022  45.1916 0010669 223.8074 136.2315 15.21960288191627
YARILO 1                
1 46490U 20068E   24082.86390550  .00030776  00000+0  12749-2 0  9998
2 46490  97.8033  46.0340 0010131 222.8018 137.2430 15.23813832191671
YARILO 2                
1 46491U 20068F   24082.87198758  .00026693  00000+0  11197-2 0  9995
2 46491  97.8034  45.7765 0010366 225.0555 134.9841 15.23418519191652
LACUNASAT-3             
1 46492U 20068G   24082.86952722  .00031728  00000+0  12596-2 0  9993
2 46492  97.8013  46.4304 0009451 218.7566 141.2994 15.25243449191684
DEKART                  
1 46493U 20068H   24082.87564746  .00011220  00000+0  63612-3 0  9991
2 46493  97.8075  41.2292 0013203 247.5545 112.4287 15.13089402191330
NORBI                   
1 46494U 20068J   24083.19125682  .00012350  00000+0  67037-3 0  9990
2 46494  97.8072  42.1975 0012452 244.5030 115.4914 15.14626558191427
SALSAT                  
1 46495U 20068K   24082.86502643  .00009427  00000+0  55900-3 0  9997
2 46495  97.8076  40.1419 0012341 245.1011 114.8936 15.11527660191266
ICEYE-X6                
1 46497U 20068M   24082.68137563  .00009740  00000+0  77132-3 0  9993
2 46497  97.9201  36.9882 0005053 334.4766  25.6207 15.00790514190691
LEMUR-2-SLICERS         
1 46500U 20068Q   24082.87988681  .00042564  00000+0  12574-2 0  9993
2 46500  97.7844  47.2451 0003656 211.7262 148.3761 15.34822783191756
LEMUR-2-SUSURRUS        
1 46502U 20068S   24082.88070009  .00060208  00000+0  17705-2 0  9998
2 46502  97.7875  47.3080 0003766 208.0368 152.0672 15.34874669191752
NETSAT-4                
1 46504U 20068U   24082.82638656  .00015071  00000+0  85890-3 0  9991
2 46504  97.7971  37.8296 0008314 304.8487  55.1960 15.12870778191100
NETSAT-3                
1 46505U 20068V   24082.84822756  .00013146  00000+0  75929-3 0  9993
2 46505  97.7949  37.4596 0007777 316.7595  43.3024 15.12424767191102
NETSAT-1                
1 46506U 20068W   24082.81635501  .00011337  00000+0  67748-3 0  9991
2 46506  97.7970  37.0715 0007070 329.4790  30.6027 15.11235679191079
NETSAT-2                
1 46507U 20068X   24083.10311257  .00013841  00000+0  79133-3 0  9997
2 46507  97.7959  37.7734 0006283 338.0332  22.0628 15.12787143191091
